[{"OBJECT_NAME":"STARLINK-36864","OBJECT_ID":"2026-041F","EPOCH":"2026-03-18T06:00:02.000160","MEAN_MOTION":15.75269602,"ECCENTRICITY":0.00013956,"INCLINATION":53.1596,"RA_OF_ASC_NODE":19.3341,"ARG_OF_PERICENTER":75.9284,"MEAN_ANOMALY":187.9073,"EPHEMERIS_TYPE":0,"CLASSIFICATION_TYPE":"U","NORAD_CAT_ID":68045,"ELEMENT_SET_NO":999,"REV_AT_EPOCH":375,"BSTAR":-0.00080564441,"MEAN_MOTION_DOT":-0.00122531,"MEAN_MOTION_DDOT":0},{"OBJECT_NAME":"STARLINK-36321","OBJECT_ID":"2026-041G","EPOCH":"2026-03-18T04:34:32.044224","MEAN_MOTION":15.8096666,"ECCENTRICITY":0.0001034,"INCLINATION":53.1595,"RA_OF_ASC_NODE":19.4776,"ARG_OF_PERICENTER":96.6774,"MEAN_ANOMALY":263.4366,"EPHEMERIS_TYPE":0,"CLASSIFICATION_TYPE":"U","NORAD_CAT_ID":68046,"ELEMENT_SET_NO":999,"REV_AT_EPOCH":256,"BSTAR":0.0014625374,"MEAN_MOTION_DOT":0.00299487,"MEAN_MOTION_DDOT":0},{"OBJECT_NAME":"STARLINK-36181","OBJECT_ID":"2026-041H","EPOCH":"2026-03-18T06:06:38.742048","MEAN_MOTION":15.80969806,"ECCENTRICITY":0.00014315,"INCLINATION":53.1597,"RA_OF_ASC_NODE":19.1651,"ARG_OF_PERICENTER":143.7233,"MEAN_ANOMALY":216.3887,"EPHEMERIS_TYPE":0,"CLASSIFICATION_TYPE":"U","NORAD_CAT_ID":68047,"ELEMENT_SET_NO":999,"REV_AT_EPOCH":257,"BSTAR":0.0013041423,"MEAN_MOTION_DOT":0.00265964,"MEAN_MOTION_DDOT":0},{"OBJECT_NAME":"STARLINK-36318","OBJECT_ID":"2026-041J","EPOCH":"2026-03-18T06:00:02.000160","MEAN_MOTION":15.75244198,"ECCENTRICITY":9.786e-5,"INCLINATION":53.16,"RA_OF_ASC_NODE":19.2848,"ARG_OF_PERICENTER":91.4324,"MEAN_ANOMALY":196.2335,"EPHEMERIS_TYPE":0,"CLASSIFICATION_TYPE":"U","NORAD_CAT_ID":68048,"ELEMENT_SET_NO":999,"REV_AT_EPOCH":375,"BSTAR":-7.217476e-6,"MEAN_MOTION_DOT":-1.745e-5,"MEAN_MOTION_DDOT":0},{"OBJECT_NAME":"STARLINK-36885","OBJECT_ID":"2026-041K","EPOCH":"2026-03-18T06:00:02.000160","MEAN_MOTION":15.7522678,"ECCENTRICITY":0.00010059,"INCLINATION":53.1599,"RA_OF_ASC_NODE":19.2807,"ARG_OF_PERICENTER":113.3862,"MEAN_ANOMALY":176.152,"EPHEMERIS_TYPE":0,"CLASSIFICATION_TYPE":"U","NORAD_CAT_ID":68049,"ELEMENT_SET_NO":999,"REV_AT_EPOCH":375,"BSTAR":2.4510253e-5,"MEAN_MOTION_DOT":3.117e-5,"MEAN_MOTION_DDOT":0},{"OBJECT_NAME":"STARLINK-36945","OBJECT_ID":"2026-041L","EPOCH":"2026-03-18T06:03:24.358464","MEAN_MOTION":15.80955242,"ECCENTRICITY":9.798e-5,"INCLINATION":53.1596,"RA_OF_ASC_NODE":19.1506,"ARG_OF_PERICENTER":100.8687,"MEAN_ANOMALY":259.2446,"EPHEMERIS_TYPE":0,"CLASSIFICATION_TYPE":"U","NORAD_CAT_ID":68050,"ELEMENT_SET_NO":999,"REV_AT_EPOCH":257,"BSTAR":0.0010904475,"MEAN_MOTION_DOT":0.00220952,"MEAN_MOTION_DDOT":0},{"OBJECT_NAME":"STARLINK-35911","OBJECT_ID":"2026-041M","EPOCH":"2026-03-18T06:01:14.753280","MEAN_MOTION":15.80957223,"ECCENTRICITY":9.723e-5,"INCLINATION":53.1596,"RA_OF_ASC_NODE":19.1406,"ARG_OF_PERICENTER":89.8992,"MEAN_ANOMALY":270.2142,"EPHEMERIS_TYPE":0,"CLASSIFICATION_TYPE":"U","NORAD_CAT_ID":68051,"ELEMENT_SET_NO":999,"REV_AT_EPOCH":257,"BSTAR":0.0011252493,"MEAN_MOTION_DOT":0.00228242,"MEAN_MOTION_DDOT":0},{"OBJECT_NAME":"STARLINK-35808","OBJECT_ID":"2026-041N","EPOCH":"2026-03-18T06:00:09.859104","MEAN_MOTION":15.80962149,"ECCENTRICITY":0.00012781,"INCLINATION":53.1596,"RA_OF_ASC_NODE":19.1349,"ARG_OF_PERICENTER":140.2975,"MEAN_ANOMALY":219.8142,"EPHEMERIS_TYPE":0,"CLASSIFICATION_TYPE":"U","NORAD_CAT_ID":68052,"ELEMENT_SET_NO":999,"REV_AT_EPOCH":257,"BSTAR":0.0011926068,"MEAN_MOTION_DOT":0.00242402,"MEAN_MOTION_DDOT":0},{"OBJECT_NAME":"STARLINK-36919","OBJECT_ID":"2026-041P","EPOCH":"2026-03-18T05:59:05.072064","MEAN_MOTION":15.80956023,"ECCENTRICITY":8.667e-5,"INCLINATION":53.1597,"RA_OF_ASC_NODE":19.1293,"ARG_OF_PERICENTER":90.5139,"MEAN_ANOMALY":269.5984,"EPHEMERIS_TYPE":0,"CLASSIFICATION_TYPE":"U","NORAD_CAT_ID":68053,"ELEMENT_SET_NO":999,"REV_AT_EPOCH":257,"BSTAR":0.00108115,"MEAN_MOTION_DOT":0.00219021,"MEAN_MOTION_DDOT":0},{"OBJECT_NAME":"STARLINK-36924","OBJECT_ID":"2026-041Q","EPOCH":"2026-03-18T06:00:02.000160","MEAN_MOTION":15.75246151,"ECCENTRICITY":0.00011757,"INCLINATION":53.1602,"RA_OF_ASC_NODE":19.2316,"ARG_OF_PERICENTER":74.2518,"MEAN_ANOMALY":239.1665,"EPHEMERIS_TYPE":0,"CLASSIFICATION_TYPE":"U","NORAD_CAT_ID":68054,"ELEMENT_SET_NO":999,"REV_AT_EPOCH":375,"BSTAR":-0.00013916573,"MEAN_MOTION_DOT":-0.00021923,"MEAN_MOTION_DDOT":0},{"OBJECT_NAME":"STARLINK-35998","OBJECT_ID":"2026-041R","EPOCH":"2026-03-18T05:58:00.433632","MEAN_MOTION":15.80927782,"ECCENTRICITY":0.00011822,"INCLINATION":53.1598,"RA_OF_ASC_NODE":19.1249,"ARG_OF_PERICENTER":114.8753,"MEAN_ANOMALY":245.2392,"EPHEMERIS_TYPE":0,"CLASSIFICATION_TYPE":"U","NORAD_CAT_ID":68055,"ELEMENT_SET_NO":999,"REV_AT_EPOCH":257,"BSTAR":0.00082673957,"MEAN_MOTION_DOT":0.00166066,"MEAN_MOTION_DDOT":0},{"OBJECT_NAME":"STARLINK-36845","OBJECT_ID":"2026-041S","EPOCH":"2026-03-18T05:55:50.566656","MEAN_MOTION":15.80973585,"ECCENTRICITY":0.00012923,"INCLINATION":53.1596,"RA_OF_ASC_NODE":19.1142,"ARG_OF_PERICENTER":148.8174,"MEAN_ANOMALY":211.2925,"EPHEMERIS_TYPE":0,"CLASSIFICATION_TYPE":"U","NORAD_CAT_ID":68056,"ELEMENT_SET_NO":999,"REV_AT_EPOCH":257,"BSTAR":0.0013020226,"MEAN_MOTION_DOT":0.00265565,"MEAN_MOTION_DDOT":0},{"OBJECT_NAME":"STARLINK-36954","OBJECT_ID":"2026-041T","EPOCH":"2026-03-18T06:00:02.000160","MEAN_MOTION":15.75246789,"ECCENTRICITY":9.308e-5,"INCLINATION":53.16,"RA_OF_ASC_NODE":19.227,"ARG_OF_PERICENTER":112.1772,"MEAN_ANOMALY":203.1093,"EPHEMERIS_TYPE":0,"CLASSIFICATION_TYPE":"U","NORAD_CAT_ID":68057,"ELEMENT_SET_NO":999,"REV_AT_EPOCH":375,"BSTAR":-0.00012774713,"MEAN_MOTION_DOT":-0.0002018,"MEAN_MOTION_DDOT":0},{"OBJECT_NAME":"STARLINK-36899","OBJECT_ID":"2026-041U","EPOCH":"2026-03-18T06:00:02.000160","MEAN_MOTION":15.75237897,"ECCENTRICITY":0.00011447,"INCLINATION":53.1601,"RA_OF_ASC_NODE":19.178,"ARG_OF_PERICENTER":80.9553,"MEAN_ANOMALY":258.229,"EPHEMERIS_TYPE":0,"CLASSIFICATION_TYPE":"U","NORAD_CAT_ID":68058,"ELEMENT_SET_NO":999,"REV_AT_EPOCH":375,"BSTAR":-2.571701e-6,"MEAN_MOTION_DOT":-1.033e-5,"MEAN_MOTION_DDOT":0},{"OBJECT_NAME":"STARLINK-36917","OBJECT_ID":"2026-041V","EPOCH":"2026-03-18T07:24:15.866208","MEAN_MOTION":15.7898178,"ECCENTRICITY":0.00013167,"INCLINATION":53.1595,"RA_OF_ASC_NODE":18.7852,"ARG_OF_PERICENTER":178.933,"MEAN_ANOMALY":181.1695,"EPHEMERIS_TYPE":0,"CLASSIFICATION_TYPE":"U","NORAD_CAT_ID":68059,"ELEMENT_SET_NO":999,"REV_AT_EPOCH":258,"BSTAR":-0.0041944016,"MEAN_MOTION_DOT":-0.00701,"MEAN_MOTION_DDOT":0},{"OBJECT_NAME":"STARLINK-36959","OBJECT_ID":"2026-041W","EPOCH":"2026-03-18T06:00:02.000160","MEAN_MOTION":15.75250884,"ECCENTRICITY":0.00010463,"INCLINATION":53.16,"RA_OF_ASC_NODE":19.1245,"ARG_OF_PERICENTER":87.8156,"MEAN_ANOMALY":277.1131,"EPHEMERIS_TYPE":0,"CLASSIFICATION_TYPE":"U","NORAD_CAT_ID":68060,"ELEMENT_SET_NO":999,"REV_AT_EPOCH":375,"BSTAR":-0.00019897836,"MEAN_MOTION_DOT":-0.00031044,"MEAN_MOTION_DDOT":0}]
