STARLINK-36864          
1 68045U 26041F   26077.25002315 -.00122531  00000+0 -80564-3 0  9997
2 68045  53.1596  19.3341 0001395  75.9284 187.9073 15.75269602  3751
STARLINK-36321          
1 68046U 26041G   26077.19064866  .00299487  00000+0  14625-2 0  9997
2 68046  53.1595  19.4776 0001034  96.6774 263.4366 15.80966660  2565
STARLINK-36181          
1 68047U 26041H   26077.25461507  .00265964  00000+0  13041-2 0  9992
2 68047  53.1597  19.1651 0001431 143.7233 216.3887 15.80969806  2573
STARLINK-36318          
1 68048U 26041J   26077.25002315 -.00001745  00000+0 -72175-5 0  9994
2 68048  53.1600  19.2848 0000978  91.4324 196.2335 15.75244198  3752
STARLINK-36885          
1 68049U 26041K   26077.25002315  .00003117  00000+0  24510-4 0  9997
2 68049  53.1599  19.2807 0001005 113.3862 176.1520 15.75226780  3758
STARLINK-36945          
1 68050U 26041L   26077.25236526  .00220952  00000+0  10904-2 0  9990
2 68050  53.1596  19.1506 0000979 100.8687 259.2446 15.80955242  2574
STARLINK-35911          
1 68051U 26041M   26077.25086520  .00228242  00000+0  11252-2 0  9995
2 68051  53.1596  19.1406 0000972  89.8992 270.2142 15.80957223  2579
STARLINK-35808          
1 68052U 26041N   26077.25011411  .00242402  00000+0  11926-2 0  9995
2 68052  53.1596  19.1349 0001278 140.2975 219.8142 15.80962149  2571
STARLINK-36919          
1 68053U 26041P   26077.24936426  .00219021  00000+0  10811-2 0  9990
2 68053  53.1597  19.1293 0000866  90.5139 269.5984 15.80956023  2572
STARLINK-36924          
1 68054U 26041Q   26077.25002315 -.00021923  00000+0 -13917-3 0  9998
2 68054  53.1602  19.2316 0001175  74.2518 239.1665 15.75246151  3759
STARLINK-35998          
1 68055U 26041R   26077.24861613  .00166066  00000+0  82674-3 0  9994
2 68055  53.1598  19.1249 0001182 114.8753 245.2392 15.80927782  2574
STARLINK-36845          
1 68056U 26041S   26077.24711304  .00265565  00000+0  13020-2 0  9998
2 68056  53.1596  19.1142 0001292 148.8174 211.2925 15.80973585  2578
STARLINK-36954          
1 68057U 26041T   26077.25002315 -.00020180  00000+0 -12775-3 0  9996
2 68057  53.1600  19.2270 0000930 112.1772 203.1093 15.75246789  3754
STARLINK-36899          
1 68058U 26041U   26077.25002315 -.00001033  00000+0 -25717-5 0  9995
2 68058  53.1601  19.1780 0001144  80.9553 258.2290 15.75237897  3758
STARLINK-36917          
1 68059U 26041V   26077.30851697 -.00701000  00000+0 -41944-2 0  9995
2 68059  53.1595  18.7852 0001316 178.9330 181.1695 15.78981780  2581
STARLINK-36959          
1 68060U 26041W   26077.25002315 -.00031044  00000+0 -19898-3 0  9994
2 68060  53.1600  19.1245 0001046  87.8156 277.1131 15.75250884  3757
